[{"OBJECT_NAME":"STARLINK-33563","OBJECT_ID":"2024-237T","EPOCH":"2026-03-09T10:41:32.368992","MEAN_MOTION":15.2756913,"ECCENTRICITY":0.0001247,"INCLINATION":42.9991,"RA_OF_ASC_NODE":217.814,"ARG_OF_PERICENTER":277.6375,"MEAN_ANOMALY":82.4335,"EPHEMERIS_TYPE":0,"CLASSIFICATION_TYPE":"U","NORAD_CAT_ID":62284,"ELEMENT_SET_NO":999,"REV_AT_EPOCH":7115,"BSTAR":0.0013102661,"MEAN_MOTION_DOT":0.00035958,"MEAN_MOTION_DDOT":0},{"OBJECT_NAME":"CZ-4C R\/B","OBJECT_ID":"2024-089B","EPOCH":"2026-03-09T16:45:24.409152","MEAN_MOTION":15.30115456,"ECCENTRICITY":0.00763424,"INCLINATION":97.7122,"RA_OF_ASC_NODE":107.3872,"ARG_OF_PERICENTER":235.0262,"MEAN_ANOMALY":124.3793,"EPHEMERIS_TYPE":0,"CLASSIFICATION_TYPE":"U","NORAD_CAT_ID":59729,"ELEMENT_SET_NO":999,"REV_AT_EPOCH":10143,"BSTAR":0.00030010198,"MEAN_MOTION_DOT":9.476e-5,"MEAN_MOTION_DDOT":0}]
